ONEWEB-0395             
1 50475U 21132G   25181.74412312  .00000476  00000+0  13070-2 0  9990
2 50475  87.8836  91.1376 0001897  67.2769 292.8559 13.11415939169656
ONEWEB-0396             
1 50476U 21132H   25181.85902482  .00000137  00000+0  31348-3 0  9998
2 50476  87.9135  45.2608 0001689  82.6323 277.5001 13.18715449175334
ONEWEB-0397             
1 50477U 21132J   25181.87364384  .00000082  00000+0  17540-3 0  9991
2 50477  87.9130  45.2587 0001696  88.4468 271.6858 13.18661349175310
ONEWEB-0398             
1 50478U 21132K   25181.78819685 -.00000275  00000+0 -81173-3 0  9990
2 50478  87.8834  91.0927 0002244  68.6940 291.4428 13.11418203169557
ONEWEB-0399             
1 50479U 21132L   25181.85092131 -.00000490  00000+0 -14172-2 0  9991
2 50479  87.8834  91.1036 0001594  80.3072 279.8236 13.11417170169553
ONEWEB-0400             
1 50480U 21132M   25181.85254038  .00000031  00000+0  45751-4 0  9997
2 50480  87.9134  45.2539 0001951  78.2601 281.8750 13.18744507175306
ONEWEB-0401             
1 50481U 21132N   25181.89637259  .00000072  00000+0  15097-3 0  9996
2 50481  87.9135  45.2398 0001770  90.7240 269.4095 13.18573746175318
ONEWEB-0402             
1 50482U 21132P   25181.78476753 -.00000026  00000+0 -99317-4 0  9994
2 50482  87.9133  45.2564 0001803 102.6217 257.5117 13.18707202175326
